[{"OBJECT_NAME":"STARLINK-35920","OBJECT_ID":"2025-271G","EPOCH":"2026-03-09T11:12:31.922496","MEAN_MOTION":15.30187844,"ECCENTRICITY":0.00011442,"INCLINATION":53.1586,"RA_OF_ASC_NODE":140.8931,"ARG_OF_PERICENTER":82.0457,"MEAN_ANOMALY":278.0673,"EPHEMERIS_TYPE":0,"CLASSIFICATION_TYPE":"U","NORAD_CAT_ID":66623,"ELEMENT_SET_NO":999,"REV_AT_EPOCH":1753,"BSTAR":0.0010211526,"MEAN_MOTION_DOT":0.00029995,"MEAN_MOTION_DDOT":0},{"OBJECT_NAME":"COSMOS 1975","OBJECT_ID":"1988-093A","EPOCH":"2026-03-09T14:15:08.474112","MEAN_MOTION":15.28069249,"ECCENTRICITY":0.0012117,"INCLINATION":82.5181,"RA_OF_ASC_NODE":117.7814,"ARG_OF_PERICENTER":163.8427,"MEAN_ANOMALY":196.3201,"EPHEMERIS_TYPE":0,"CLASSIFICATION_TYPE":"U","NORAD_CAT_ID":19573,"ELEMENT_SET_NO":999,"REV_AT_EPOCH":1939,"BSTAR":0.0002787,"MEAN_MOTION_DOT":7.676e-5,"MEAN_MOTION_DDOT":0}]
